QIANFAN-57              
1 62787U 25016C   26001.74849419  .00000234  00000+0  34329-3 0  9991
2 62787  88.9786 101.1372 0002578 106.3089 253.8345 13.50983612 49902
QIANFAN-58              
1 62788U 25016D   26001.79370695  .00000211  00000+0  30885-3 0  9990
2 62788  88.9756 100.9580 0012084 284.6111  75.3700 13.50985352 49957
QIANFAN-59              
1 62789U 25016E   26001.74430147  .00000243  00000+0  35853-3 0  9990
2 62789  88.9779 101.0415 0012443 289.1806  70.7998 13.50981724 49948
QIANFAN-60              
1 62790U 25016F   26001.77727834  .00000243  00000+0  35773-3 0  9998
2 62790  88.9760 101.0057 0013982 284.9762  74.9841 13.50990807 49939
QIANFAN-61              
1 62791U 25016G   26001.81011924  .00000216  00000+0  31661-3 0  9992
2 62791  88.9827 101.1789 0012922 284.2560  75.7156 13.50987114 49956
QIANFAN-62              
1 62792U 25016H   26001.66615333  .00000231  00000+0  34004-3 0  9991
2 62792  88.9774 101.0514 0014304 285.1507  74.8062 13.50983749 49923
QIANFAN-63              
1 62793U 25016J   26001.76486237  .00000232  00000+0  34117-3 0  9998
2 62793  88.9781 100.9941 0014355 290.8360  69.1254 13.50982004 49978
QIANFAN-64              
1 62794U 25016K   26001.80601399  .00000231  00000+0  33986-3 0  9994
2 62794  88.9768 100.9612 0012303 282.6818  77.2957 13.50985494 49973
